{
  "type": "FeatureCollection",
  "features": [
    {
      "type": "Feature",
      "properties": {
        "norad_id": 32275,
        "name": "COSMOS 2433 (720)",
        "group": "glo-ops",
        "lat": 48.55568322734132,
        "lon": -6.90052563108164,
        "alt_km": 19137.38151407681,
        "timestamp": "2025-12-09T09:46:47.906176+00:00",
        "meta_object_name": "COSMOS 2433 (720)",
        "meta_object_id": "2007-052A",
        "meta_epoch": "2025-12-07T22:15:39.436992",
        "meta_mean_motion": 2.13103936,
        "meta_eccentricity": 0.00054366,
        "meta_inclination": 65.6859,
        "meta_ra_of_asc_node": 322.3673,
        "meta_arg_of_pericenter": 253.7081,
        "meta_mean_anomaly": 106.2283,
        "meta_ephemeris_type": 0,
        "meta_classification_type": "U",
        "meta_norad_cat_id": 32275,
        "meta_element_set_no": 999,
        "meta_rev_at_epoch": 14098,
        "meta_bstar": 0,
        "meta_mean_motion_dot": -4.9e-07,
        "meta_mean_motion_ddot": 0,
        "tle_line1": "1 32275U 07052A   25341.92753978 -.00000049  00000+0  00000+0 0  9990",
        "tle_line2": "2 32275  65.6859 322.3673 0005436 253.7081 106.2283  2.13103936140982"
      },
      "geometry": {
        "type": "Point",
        "coordinates": [
          -6.90052563108164,
          48.55568322734132
        ]
      }
    },
    {
      "type": "Feature",
      "properties": {
        "norad_id": 32276,
        "name": "COSMOS 2432 (719)",
        "group": "glo-ops",
        "lat": -0.103355286016313,
        "lon": -37.61584984459756,
        "alt_km": 19110.94695339264,
        "timestamp": "2025-12-09T09:46:47.906200+00:00",
        "meta_object_name": "COSMOS 2432 (719)",
        "meta_object_id": "2007-052B",
        "meta_epoch": "2025-12-08T02:14:19.806720",
        "meta_mean_motion": 2.13103088,
        "meta_eccentricity": 0.00112877,
        "meta_inclination": 65.7017,
        "meta_ra_of_asc_node": 322.4859,
        "meta_arg_of_pericenter": 312.3782,
        "meta_mean_anomaly": 119.1922,
        "meta_ephemeris_type": 0,
        "meta_classification_type": "U",
        "meta_norad_cat_id": 32276,
        "meta_element_set_no": 999,
        "meta_rev_at_epoch": 14101,
        "meta_bstar": 0,
        "meta_mean_motion_dot": -4.9e-07,
        "meta_mean_motion_ddot": 0,
        "tle_line1": "1 32276U 07052B   25342.09328480 -.00000049  00000+0  00000+0 0  9996",
        "tle_line2": "2 32276  65.7017 322.4859 0011287 312.3782 119.1922  2.13103088141014"
      },
      "geometry": {
        "type": "Point",
        "coordinates": [
          -37.61584984459756,
          -0.103355286016313
        ]
      }
    },
    {
      "type": "Feature",
      "properties": {
        "norad_id": 32393,
        "name": "COSMOS 2434 (721)",
        "group": "glo-ops",
        "lat": -46.91234336266928,
        "lon": 167.3528713599666,
        "alt_km": 19142.075854470913,
        "timestamp": "2025-12-09T09:46:47.906215+00:00",
        "meta_object_name": "COSMOS 2434 (721)",
        "meta_object_id": "2007-065A",
        "meta_epoch": "2025-12-08T05:21:15.731136",
        "meta_mean_motion": 2.13101228,
        "meta_eccentricity": 0.00044814,
        "meta_inclination": 64.3148,
        "meta_ra_of_asc_node": 198.3559,
        "meta_arg_of_pericenter": 71.0536,
        "meta_mean_anomaly": 46.2753,
        "meta_ephemeris_type": 0,
        "meta_classification_type": "U",
        "meta_norad_cat_id": 32393,
        "meta_element_set_no": 999,
        "meta_rev_at_epoch": 13970,
        "meta_bstar": 0,
        "meta_mean_motion_dot": 5e-07,
        "meta_mean_motion_ddot": 0,
        "tle_line1": "1 32393U 07065A   25342.22309874  .00000050  00000+0  00000+0 0  9992",
        "tle_line2": "2 32393  64.3148 198.3559 0004481  71.0536  46.2753  2.13101228139704"
      },
      "geometry": {
        "type": "Point",
        "coordinates": [
          167.3528713599666,
          -46.91234336266928
        ]
      }
    },
    {
      "type": "Feature",
      "properties": {
        "norad_id": 32395,
        "name": "COSMOS 2436 (723)",
        "group": "glo-ops",
        "lat": 62.270182007737326,
        "lon": -95.37492244751736,
        "alt_km": 19107.65464318153,
        "timestamp": "2025-12-09T09:46:47.906228+00:00",
        "meta_object_name": "COSMOS 2436 (723)",
        "meta_object_id": "2007-065C",
        "meta_epoch": "2025-12-08T02:01:11.627904",
        "meta_mean_motion": 2.13100022,
        "meta_eccentricity": 0.00177472,
        "meta_inclination": 64.3236,
        "meta_ra_of_asc_node": 198.4308,
        "meta_arg_of_pericenter": 9.2257,
        "meta_mean_anomaly": 134.6131,
        "meta_ephemeris_type": 0,
        "meta_classification_type": "U",
        "meta_norad_cat_id": 32395,
        "meta_element_set_no": 999,
        "meta_rev_at_epoch": 13965,
        "meta_bstar": 0,
        "meta_mean_motion_dot": 5.1e-07,
        "meta_mean_motion_ddot": 0,
        "tle_line1": "1 32395U 07065C   25342.08416236  .00000051  00000+0  00000+0 0  9990",
        "tle_line2": "2 32395  64.3236 198.4308 0017747   9.2257 134.6131  2.13100022139656"
      },
      "geometry": {
        "type": "Point",
        "coordinates": [
          -95.37492244751736,
          62.270182007737326
        ]
      }
    },
    {
      "type": "Feature",
      "properties": {
        "norad_id": 36111,
        "name": "COSMOS 2456 (730)",
        "group": "glo-ops",
        "lat": 61.92652780272702,
        "lon": -163.88976124227258,
        "alt_km": 19129.998928905057,
        "timestamp": "2025-12-09T09:46:47.906241+00:00",
        "meta_object_name": "COSMOS 2456 (730)",
        "meta_object_id": "2009-070A",
        "meta_epoch": "2025-12-09T00:01:53.356800",
        "meta_mean_motion": 2.13103359,
        "meta_eccentricity": 0.00028237,
        "meta_inclination": 64.8981,
        "meta_ra_of_asc_node": 77.466,
        "meta_arg_of_pericenter": 298.6083,
        "meta_mean_anomaly": 212.7923,
        "meta_ephemeris_type": 0,
        "meta_classification_type": "U",
        "meta_norad_cat_id": 36111,
        "meta_element_set_no": 999,
        "meta_rev_at_epoch": 12437,
        "meta_bstar": 0,
        "meta_mean_motion_dot": -1.6e-07,
        "meta_mean_motion_ddot": 0,
        "tle_line1": "1 36111U 09070A   25343.00131200 -.00000016  00000+0  00000+0 0  9998",
        "tle_line2": "2 36111  64.8981  77.4660 0002823 298.6083 212.7923  2.13103359124371"
      },
      "geometry": {
        "type": "Point",
        "coordinates": [
          -163.88976124227258,
          61.92652780272702
        ]
      }
    },
    {
      "type": "Feature",
      "properties": {
        "norad_id": 36112,
        "name": "COSMOS 2457 (733)",
        "group": "glo-ops",
        "lat": -45.74757163999279,
        "lon": -73.95884948537015,
        "alt_km": 19132.518175477173,
        "timestamp": "2025-12-09T09:46:47.906253+00:00",
        "meta_object_name": "COSMOS 2457 (733)",
        "meta_object_id": "2009-070B",
        "meta_epoch": "2025-12-08T14:21:11.818944",
        "meta_mean_motion": 2.13100771,
        "meta_eccentricity": 0.00048663,
        "meta_inclination": 64.883,
        "meta_ra_of_asc_node": 77.3275,
        "meta_arg_of_pericenter": 155.8932,
        "meta_mean_anomaly": 175.3227,
        "meta_ephemeris_type": 0,
        "meta_classification_type": "U",
        "meta_norad_cat_id": 36112,
        "meta_element_set_no": 999,
        "meta_rev_at_epoch": 12436,
        "meta_bstar": 0,
        "meta_mean_motion_dot": -1.5e-07,
        "meta_mean_motion_ddot": 0,
        "tle_line1": "1 36112U 09070B   25342.59805346 -.00000015  00000+0  00000+0 0  9990",
        "tle_line2": "2 36112  64.8830  77.3275 0004866 155.8932 175.3227  2.13100771124367"
      },
      "geometry": {
        "type": "Point",
        "coordinates": [
          -73.95884948537015,
          -45.74757163999279
        ]
      }
    },
    {
      "type": "Feature",
      "properties": {
        "norad_id": 36402,
        "name": "COSMOS 2460 (732)",
        "group": "glo-ops",
        "lat": -45.53965366893314,
        "lon": 168.51411153859473,
        "alt_km": 19129.535185237542,
        "timestamp": "2025-12-09T09:46:47.906265+00:00",
        "meta_object_name": "COSMOS 2460 (732)",
        "meta_object_id": "2010-007C",
        "meta_epoch": "2025-12-09T02:35:27.197952",
        "meta_mean_motion": 2.13105905,
        "meta_eccentricity": 0.0002812,
        "meta_inclination": 65.5319,
        "meta_ra_of_asc_node": 320.8965,
        "meta_arg_of_pericenter": 271.4653,
        "meta_mean_anomaly": 90.3471,
        "meta_ephemeris_type": 0,
        "meta_classification_type": "U",
        "meta_norad_cat_id": 36402,
        "meta_element_set_no": 999,
        "meta_rev_at_epoch": 12268,
        "meta_bstar": 0,
        "meta_mean_motion_dot": -4.8e-07,
        "meta_mean_motion_ddot": 0,
        "tle_line1": "1 36402U 10007C   25343.10795368 -.00000048  00000+0  00000+0 0  9990",
        "tle_line2": "2 36402  65.5319 320.8965 0002812 271.4653  90.3471  2.13105905122689"
      },
      "geometry": {
        "type": "Point",
        "coordinates": [
          168.51411153859473,
          -45.53965366893314
        ]
      }
    }
  ]
}